{
    "links": {
        "self": "http://www.neowsapp.com/rest/v1/neo/3712424?api_key=iIulBulltgU6a56xZRHN4H3l9WmuAYTsLGpBGhQ2"
    },
    "id": "3712424",
    "neo_reference_id": "3712424",
    "name": "(2015 DZ180)",
    "designation": "2015 DZ180",
    "nasa_jpl_url": "http://ssd.jpl.nasa.gov/sbdb.cgi?sstr=3712424",
    "absolute_magnitude_h": 25.6,
    "estimated_diameter": {
        "kilometers": {
            "estimated_diameter_min": 0.0201629919,
            "estimated_diameter_max": 0.0450858206
        },
        "meters": {
            "estimated_diameter_min": 20.1629919443,
            "estimated_diameter_max": 45.0858206172
        },
        "miles": {
            "estimated_diameter_min": 0.0125286985,
            "estimated_diameter_max": 0.0280150214
        },
        "feet": {
            "estimated_diameter_min": 66.1515504905,
            "estimated_diameter_max": 147.9193637137
        }
    },
    "is_potentially_hazardous_asteroid": false,
    "close_approach_data": [
        {
            "close_approach_date": "2015-02-09",
            "close_approach_date_full": "2015-Feb-09 07:24",
            "epoch_date_close_approach": 1423466640000,
            "relative_velocity": {
                "kilometers_per_second": "6.7897268015",
                "kilometers_per_hour": "24443.0164855255",
                "miles_per_hour": "15187.9398823533"
            },
            "miss_distance": {
                "astronomical": "0.0814301058",
                "lunar": "31.6763111562",
                "kilometers": "12181770.381554646",
                "miles": "7569401.1173042748"
            },
            "orbiting_body": "Earth"
        }
    ],
    "orbital_data": {
        "orbit_id": "3",
        "orbit_determination_date": "2017-04-06 08:35:26",
        "first_observation_date": "2015-02-19",
        "last_observation_date": "2015-02-24",
        "data_arc_in_days": 5,
        "observations_used": 13,
        "orbit_uncertainty": "8",
        "minimum_orbit_intersection": ".0757296",
        "jupiter_tisserand_invariant": "3.703",
        "epoch_osculation": "2457073.5",
        "eccentricity": ".4702378513495498",
        "semi_major_axis": "1.981768316232856",
        "inclination": "8.435427435670785",
        "ascending_node_longitude": "335.1965711587108",
        "orbital_period": "1019.008362495778",
        "perihelion_distance": "1.049865841334903",
        "perihelion_argument": "156.8082003069065",
        "aphelion_distance": "2.91367079113081",
        "perihelion_time": "2457054.325130131878",
        "mean_anomaly": "6.774186951338705",
        "mean_motion": ".3532846375453485",
        "equinox": "J2000",
        "orbit_class": {
            "orbit_class_type": "AMO",
            "orbit_class_description": "Near-Earth asteroid orbits similar to that of 1221 Amor",
            "orbit_class_range": "1.017 AU < q (perihelion) < 1.3 AU"
        }
    },
    "is_sentry_object": false
}